TIANQI-15               
1 49027U 21065B   26068.81163741  .00006722  00000+0  41179-3 0  9990
2 49027  34.9979 108.2420 0007067 250.7766 109.2180 15.09508085254244
STARLINK-3969           
1 52551U 22051U   26068.54080794  .00001886  00000+0  13659-3 0  9996
2 52551  53.2167 129.7900 0001055  99.3768 260.7343 15.08827185211425
