[{"OBJECT_NAME":"TIANQI-15","OBJECT_ID":"2021-065B","EPOCH":"2026-03-09T19:28:45.472224","MEAN_MOTION":15.09508085,"ECCENTRICITY":0.00070671,"INCLINATION":34.9979,"RA_OF_ASC_NODE":108.242,"ARG_OF_PERICENTER":250.7766,"MEAN_ANOMALY":109.218,"EPHEMERIS_TYPE":0,"CLASSIFICATION_TYPE":"U","NORAD_CAT_ID":49027,"ELEMENT_SET_NO":999,"REV_AT_EPOCH":25424,"BSTAR":0.00041179088,"MEAN_MOTION_DOT":6.722e-5,"MEAN_MOTION_DDOT":0},{"OBJECT_NAME":"STARLINK-3969","OBJECT_ID":"2022-051U","EPOCH":"2026-03-09T12:58:45.806016","MEAN_MOTION":15.08827185,"ECCENTRICITY":0.00010558,"INCLINATION":53.2167,"RA_OF_ASC_NODE":129.79,"ARG_OF_PERICENTER":99.3768,"MEAN_ANOMALY":260.7343,"EPHEMERIS_TYPE":0,"CLASSIFICATION_TYPE":"U","NORAD_CAT_ID":52551,"ELEMENT_SET_NO":999,"REV_AT_EPOCH":21142,"BSTAR":0.00013659308,"MEAN_MOTION_DOT":1.886e-5,"MEAN_MOTION_DDOT":0}]
